STARLINK-30494          
1 57970U 23151G   26068.36049035 -.00001272  00000+0 -35691-4 0  9993
2 57970  43.0027 192.4566 0001155 241.5536 118.5200 15.28417441137406
STARLINK-35565          
1 66803U 25278N   26068.15050485  .00025539  00000+0  93484-3 0  9991
2 66803  42.9962 117.6695 0001075 244.7950 115.2790 15.27563931 15122
